BEIDOU 3 (C01)          
1 36287U 10001A   20246.53450312 -.00000299  00000-0  00000-0 0  9996
2 36287   1.5050  31.1798 0005709 120.5510 163.2714  1.00270734 38989
BEIDOU 5 (C06)          
1 36828U 10036A   20246.49706752 -.00000186  00000-0  10000-3 0  9991
2 36828  54.1692 182.2722 0101567 235.3443 221.2117  1.00292832 37029
BEIDOU 6 (C04)          
1 37210U 10057A   20246.62244013 -.00000131  00000-0  00000-0 0  9998
2 37210   0.9407  53.8969 0005799 120.7366 191.6071  1.00270390 36095
BEIDOU 7 (C07)          
1 37256U 10068A   20246.05748519 -.00000187  00000-0  00000+0 0  9997
2 37256  51.3523 297.4268 0082566 213.9639 329.5756  1.00289173 35592
BEIDOU 8 (C08)          
1 37384U 11013A   20246.39424502 -.00000164  00000-0  10000-3 0  9990
2 37384  59.3759  60.8166 0050329 200.9280 340.6007  1.00284809 34483
BEIDOU 9 (C09)          
1 37763U 11038A   20246.55770647 -.00000119  00000-0  10000-3 0  9990
2 37763  54.4518 184.6672 0073850 225.5400 228.6448  1.00278446 33451
BEIDOU 10 (C10)         
1 37948U 11073A   20246.59774918 -.00000131  00000-0  10000-3 0  9997
2 37948  51.4465 297.0229 0071390 214.7027 141.7406  1.00278599 32203
BEIDOU 11 (C05)         
1 38091U 12008A   20246.58998519  .00000039  00000-0  00000-0 0  9992
2 38091   1.6361  68.6340 0001510 273.8844 270.7462  1.00274360 31285
BEIDOU 12 (C11)         
1 38250U 12018A   20246.21184013 -.00000110  00000-0  10000-3 0  9991
2 38250  56.7443  15.1355 0021619 238.1812 122.5491  1.86234331 56920
BEIDOU 13 (C12)         
1 38251U 12018B   20246.14475572 -.00000111  00000-0  00000+0 0  9993
2 38251  56.6709  14.5048 0012574 237.0071 123.9014  1.86232637 56925
BEIDOU 15 (C14)         
1 38775U 12050B   20246.26124968 -.00000008  00000-0  00000-0 0  9999
2 38775  55.0864 133.7050 0015025 321.1976 314.4155  1.86232360 54295
BEIDOU 16 (C02)         
1 38953U 12059A   20246.51012789 -.00000193  00000-0  00000-0 0  9996
2 38953   1.2830  84.1042 0006188 266.8198 258.8220  1.00269058 28857
BEIDOU 17 (C31)         
1 40549U 15019A   20246.52756066 -.00000173  00000-0  00000-0 0  9991
2 40549  52.9428 320.3169 0040591 190.4014 118.5689  1.00270539 19887
BEIDOU 18 (C57)         
1 40748U 15037A   20246.29458124 -.00000112  00000-0  00000-0 0  9993
2 40748  55.9377  13.7596 0002292  49.4060 321.8199  1.86232049 34757
BEIDOU 19 (C58)         
1 40749U 15037B   20246.56254056 -.00000111  00000-0  00000+0 0  9990
2 40749  55.9394  13.7378 0002449 301.3358  26.6079  1.86232235 34742
BEIDOU 20 (C18)         
1 40938U 15053A   20246.55518332 -.00000088  00000-0  00000+0 0  9990
2 40938  52.5024 283.3506 0052111 191.0666 161.1996  1.00255849 18163
BEIDOU IGSO-6 (C13)     
1 41434U 16021A   20246.45354818 -.00000126  00000-0  00000-0 0  9998
2 41434  57.1437  59.6910 0040110 203.2504 337.2796  1.00284525 16299
BEIDOU-2 G7 (C03)       
1 41586U 16037A   20246.52848384 -.00000371  00000-0  00000-0 0  9999
2 41586   1.6471  66.4151 0007298   9.9532 206.3514  1.00264416 15597
BEIDOU-3 M1 (C19)       
1 43001U 17069A   20246.41150220 -.00000006  00000-0  00000-0 0  9997
2 43001  55.2405 133.6118 0009360 293.7896 239.2963  1.86231912 19238
BEIDOU-3 M2 (C20)       
1 43002U 17069B   20246.35166993 -.00000007  00000-0  00000-0 0  9996
2 43002  55.2425 133.6498 0008658 316.8570 219.9137  1.86231497 19222
BEIDOU-3 M3 (C27)       
1 43107U 18003A   20246.46092299 -.00000112  00000-0  00000+0 0  9996
2 43107  55.3733  14.9646 0004247  55.4106   0.4807  1.86232568 17997
BEIDOU-3 M4 (C28)       
1 43108U 18003B   20246.42592970 -.00000112  00000-0  00000-0 0  9995
2 43108  55.3661  14.9568 0003217 219.7292 217.8505  1.86232598 17990
BEIDOU-3 M5 (C21)       
1 43207U 18018A   20246.22091303 -.00000008  00000-0  00000-0 0  9997
2 43207  55.1989 133.7548 0006384 343.4063  16.6490  1.86231921 17377
BEIDOU-3 M6 (C22)       
1 43208U 18018B   20245.75071922 -.00000012  00000-0  00000+0 0  9994
2 43208  55.1983 133.7756 0007435 308.0019  52.0044  1.86231790 17361
BEIDOU-3 M7 (C29)       
1 43245U 18029A   20246.50705898 -.00000112  00000-0  00000+0 0  9998
2 43245  55.3175  12.7687 0000762 152.1365 204.7321  1.86232717 16525
BEIDOU-3 M8 (C30)       
1 43246U 18029B   20246.40047628 -.00000113  00000-0  10000-3 0  9994
2 43246  55.3136  12.8039 0003032 347.1656 344.1680  1.86232876 16519
BEIDOU IGSO-7 (C16)     
1 43539U 18057A   20246.62942802 -.00000164  00000-0  00000-0 0  9994
2 43539  55.0501 181.5587 0032084 217.9235 279.9278  1.00301852  7969
BEIDOU-3 M9 (C23)       
1 43581U 18062A   20246.34587352  .00000010  00000-0  00000-0 0  9990
2 43581  54.5329 254.4933 0006488 260.4142 243.8554  1.86231890 14268
BEIDOU-3 M10 (C24)      
1 43582U 18062B   20246.04171515  .00000011  00000-0  00000-0 0  9999
2 43582  54.5325 254.4927 0004802 314.6626  76.6698  1.86232168 14265
BEIDOU-3 M11 (C25)      
1 43602U 18067A   20246.63382155  .00000009  00000-0  00000-0 0  9993
2 43602  54.6026 253.0322 0006343 340.4007 130.7589  1.86231582 13767
BEIDOU-3 M12 (C26)      
1 43603U 18067B   20246.30199435  .00000010  00000-0  00000-0 0  9997
2 43603  54.5993 253.0107 0004156 320.2938 198.9130  1.86231534 13776
BEIDOU-3 M13 (C32)      
1 43622U 18072A   20246.33655769 -.00000007  00000-0  00000-0 0  9991
2 43622  55.1628 133.3276 0006016 293.4051 279.4087  1.86231937 13289
BEIDOU-3 M14 (C33)      
1 43623U 18072B   20246.01784413 -.00000009  00000-0  00000+0 0  9997
2 43623  55.1638 133.3315 0005201 322.9122 126.4443  1.86232044 13284
BEIDOU-3 M15 (C34)      
1 43647U 18078A   20246.52556583 -.00000112  00000-0  10000-3 0  9990
2 43647  55.2091  12.9828 0005456 352.4164 332.4965  1.86232793 12807
BEIDOU-3 M16 (C35)      
1 43648U 18078B   20246.44569696 -.00000113  00000-0  10000-3 0  9992
2 43648  55.2067  12.9939 0003402   8.1986 172.1213  1.86232216 12816
BEIDOU-3 G1 (C59)       
1 43683U 18085A   20246.60621105 -.00000298  00000-0  00000-0 0  9991
2 43683   1.6068 251.7218 0004070 344.5535 104.1755  1.00274506  6872
BEIDOU-3 M17 (C36)      
1 43706U 18093A   20246.40298542  .00000009  00000-0  00000+0 0  9997
2 43706  54.6120 254.3273 0012090 263.0132 144.5207  1.86231808 12165
BEIDOU-3 M18 (C37)      
1 43707U 18093B   20246.36522072  .00000010  00000-0  00000+0 0  9993
2 43707  54.6123 254.3206 0010214 280.8134 191.9905  1.86232099 12164
BEIDOU-3 IGSO-1 (C38)   
1 44204U 19023A   20246.40586513 -.00000186  00000-0  10000-3 0  9995
2 44204  55.6045  60.0678 0018069 178.2682   3.3717  1.00270884  5169
BEIDOU-2 G8             
1 44231U 19027A   20246.54462726 -.00000266  00000-0  00000-0 0  9998
2 44231   0.8150 299.6978 0007818 267.1663 115.9099  1.00270955  4899
BEIDOU-3 IGSO-2 (C39)   
1 44337U 19035A   20246.62958909 -.00000158  00000-0  00000-0 0  9996
2 44337  55.0744 177.6017 0014146 188.6225 310.3876  1.00267272  4509
BEIDOU-3 M23 (C45)      
1 44542U 19061A   20246.52313237  .00000010  00000-0  10000-3 0  9991
2 44542  54.8339 254.3372 0009081 306.3411 226.2218  1.86231380  6422
BEIDOU-3 M24 (C46)      
1 44543U 19061B   20246.49475069  .00000010  00000-0  10000-3 0  9990
2 44543  54.8345 254.3077 0006991 291.1637 132.8583  1.86231705  6439
BEIDOU-3 IGSO-3         
1 44709U 19073A   20246.59931942 -.00000139  00000-0  10000-3 0  9998
2 44709  58.2813 303.1159 0025562 190.0482 170.9522  1.00261684  3264
BEIDOU-3 M21            
1 44793U 19078A   20245.03868865 -.00000116  00000-0  10000-3 0  9992
2 44793  55.0586  13.1363 0005471   0.9388   1.8809  1.86232539  5268
BEIDOU-3 M22            
1 44794U 19078B   20246.33922697 -.00000113  00000-0  10000-3 0  9998
2 44794  55.0353  13.0953 0003326 354.7963  70.4012  1.86232946  5283
BEIDOU-3 M19            
1 44864U 19090A   20246.22630021 -.00000008  00000-0  00000-0 0  9994
2 44864  55.0990 133.5798 0014973 265.6800 278.4857  1.86232048  4866
BEIDOU-3 M20            
1 44865U 19090B   20246.57842520 -.00000005  00000-0  10000-3 0  9993
2 44865  55.1011 133.5990 0014142 282.7710 227.4150  1.86231982  4859
BEIDOU-3 G2             
1 45344U 20017A   20246.57067559 -.00000159  00000-0  00000-0 0  9994
2 45344   2.8414 329.6391 0002786 180.7476 117.2348  1.00271171  2064
BEIDOU-3 G3             
1 45807U 20040A   20246.52848384 -.00000374  00000-0  00000-0 0  9991
2 45807   2.9471 298.6767 0006580 349.7499 354.3666  1.00278135   873
